[
  {
    "OBJECT_NAME": "STARLINK-5638",
    "OBJECT_ID": "23014AM",
    "EPOCH": "2025-11-11T06:57:16.485696",
    "MEAN_MOTION": 14.98329579,
    "ECCENTRICITY": 0.0003121,
    "INCLINATION": 70.0005,
    "RA_OF_ASC_NODE": 23.123,
    "ARG_OF_PERICENTER": 270.0853,
    "MEAN_ANOMALY": 89.9949,
    "EPHEMERIS_TYPE": 0,
    "CLASSIFICATION_TYPE": "U",
    "NORAD_CAT_ID": 55426,
    "ELEMENT_SET_NO": 999,
    "REV_AT_EPOCH": 15382,
    "BSTAR": 0.0002471,
    "MEAN_MOTION_DOT": 2.856e-05,
    "MEAN_MOTION_DDOT": 0.0,
    "TLE_LINE1": "1 55426U 23014AM  25315.28977414  .00002856  00000+0  24710-3 0  9997",
    "TLE_LINE2": "2 55426  70.0005  23.1230 0003121 270.0853  89.9949 14.98329579153823",
    "COMMENT": "Grouped by shell and plane from TLE"
  },
  {
    "OBJECT_NAME": "STARLINK-5073",
    "OBJECT_ID": "23014AN",
    "EPOCH": "2025-11-11T06:39:14.796576",
    "MEAN_MOTION": 14.98319843,
    "ECCENTRICITY": 0.0003611,
    "INCLINATION": 70.0008,
    "RA_OF_ASC_NODE": 23.0782,
    "ARG_OF_PERICENTER": 268.264,
    "MEAN_ANOMALY": 91.8105,
    "EPHEMERIS_TYPE": 0,
    "CLASSIFICATION_TYPE": "U",
    "NORAD_CAT_ID": 55427,
    "ELEMENT_SET_NO": 999,
    "REV_AT_EPOCH": 15382,
    "BSTAR": 0.00028248,
    "MEAN_MOTION_DOT": 3.278e-05,
    "MEAN_MOTION_DDOT": 0.0,
    "TLE_LINE1": "1 55427U 23014AN  25315.27725459  .00003278  00000+0  28248-3 0  9996",
    "TLE_LINE2": "2 55427  70.0008  23.0782 0003611 268.2640  91.8105 14.98319843153824",
    "COMMENT": "Grouped by shell and plane from TLE"
  },
  {
    "OBJECT_NAME": "STARLINK-5064",
    "OBJECT_ID": "23014AP",
    "EPOCH": "2025-11-11T07:09:17.837568",
    "MEAN_MOTION": 14.98337474,
    "ECCENTRICITY": 0.0003221,
    "INCLINATION": 70.0003,
    "RA_OF_ASC_NODE": 23.1531,
    "ARG_OF_PERICENTER": 269.498,
    "MEAN_ANOMALY": 90.581,
    "EPHEMERIS_TYPE": 0,
    "CLASSIFICATION_TYPE": "U",
    "NORAD_CAT_ID": 55428,
    "ELEMENT_SET_NO": 999,
    "REV_AT_EPOCH": 15382,
    "BSTAR": 3.1089e-05,
    "MEAN_MOTION_DOT": 2.78e-06,
    "MEAN_MOTION_DDOT": 0.0,
    "TLE_LINE1": "1 55428U 23014AP  25315.29812312  .00000278  00000+0  31089-4 0  9999",
    "TLE_LINE2": "2 55428  70.0003  23.1531 0003221 269.4980  90.5810 14.98337474153829",
    "COMMENT": "Grouped by shell and plane from TLE"
  },
  {
    "OBJECT_NAME": "STARLINK-5645",
    "OBJECT_ID": "23014AQ",
    "EPOCH": "2025-11-11T06:51:15.972192",
    "MEAN_MOTION": 14.98338698,
    "ECCENTRICITY": 0.0003093,
    "INCLINATION": 70.0007,
    "RA_OF_ASC_NODE": 23.1076,
    "ARG_OF_PERICENTER": 267.1051,
    "MEAN_ANOMALY": 92.9754,
    "EPHEMERIS_TYPE": 0,
    "CLASSIFICATION_TYPE": "U",
    "NORAD_CAT_ID": 55429,
    "ELEMENT_SET_NO": 999,
    "REV_AT_EPOCH": 15382,
    "BSTAR": 1.8025e-05,
    "MEAN_MOTION_DOT": 1.22e-06,
    "MEAN_MOTION_DDOT": 0.0,
    "TLE_LINE1": "1 55429U 23014AQ  25315.28560153  .00000122  00000+0  18025-4 0  9995",
    "TLE_LINE2": "2 55429  70.0007  23.1076 0003093 267.1051  92.9754 14.98338698153821",
    "COMMENT": "Grouped by shell and plane from TLE"
  },
  {
    "OBJECT_NAME": "STARLINK-5643",
    "OBJECT_ID": "23014AS",
    "EPOCH": "2025-11-11T07:03:17.171136",
    "MEAN_MOTION": 14.98332689,
    "ECCENTRICITY": 0.0003088,
    "INCLINATION": 70.0003,
    "RA_OF_ASC_NODE": 23.1388,
    "ARG_OF_PERICENTER": 269.0888,
    "MEAN_ANOMALY": 90.9918,
    "EPHEMERIS_TYPE": 0,
    "CLASSIFICATION_TYPE": "U",
    "NORAD_CAT_ID": 55431,
    "ELEMENT_SET_NO": 999,
    "REV_AT_EPOCH": 15382,
    "BSTAR": 5.064800000000001e-06,
    "MEAN_MOTION_DOT": -3.3e-07,
    "MEAN_MOTION_DDOT": 0.0,
    "TLE_LINE1": "1 55431U 23014AS  25315.29394874 -.00000033  00000+0  50648-5 0  9994",
    "TLE_LINE2": "2 55431  70.0003  23.1388 0003088 269.0888  90.9918 14.98332689153823",
    "COMMENT": "Grouped by shell and plane from TLE"
  },
  {
    "OBJECT_NAME": "STARLINK-5841",
    "OBJECT_ID": "23064AX",
    "EPOCH": "2025-11-11T07:33:19.167552",
    "MEAN_MOTION": 14.98344981,
    "ECCENTRICITY": 0.0003111,
    "INCLINATION": 70.0,
    "RA_OF_ASC_NODE": 22.9372,
    "ARG_OF_PERICENTER": 265.7002,
    "MEAN_ANOMALY": 94.3802,
    "EPHEMERIS_TYPE": 0,
    "CLASSIFICATION_TYPE": "U",
    "NORAD_CAT_ID": 56493,
    "ELEMENT_SET_NO": 999,
    "REV_AT_EPOCH": 13899,
    "BSTAR": 0.0,
    "MEAN_MOTION_DOT": -5.43e-06,
    "MEAN_MOTION_DDOT": 0.0,
    "TLE_LINE1": "1 56493U 23064AX  25315.31480518 -.00000543  00000+0 -37680-4 0  9999",
    "TLE_LINE2": "2 56493  70.0000  22.9372 0003111 265.7002  94.3802 14.98344981138996",
    "COMMENT": "Grouped by shell and plane from TLE"
  },
  {
    "OBJECT_NAME": "STARLINK-5542",
    "OBJECT_ID": "23088AD",
    "EPOCH": "2025-11-10T11:23:25.618848",
    "MEAN_MOTION": 15.0253455,
    "ECCENTRICITY": 0.0001212,
    "INCLINATION": 43.0055,
    "RA_OF_ASC_NODE": 22.5061,
    "ARG_OF_PERICENTER": 274.558,
    "MEAN_ANOMALY": 85.5124,
    "EPHEMERIS_TYPE": 0,
    "CLASSIFICATION_TYPE": "U",
    "NORAD_CAT_ID": 57075,
    "ELEMENT_SET_NO": 999,
    "REV_AT_EPOCH": 13258,
    "BSTAR": 0.0,
    "MEAN_MOTION_DOT": -1.173e-05,
    "MEAN_MOTION_DDOT": 0.0,
    "TLE_LINE1": "1 57075U 23088AD  25314.47460207 -.00001173  00000+0 -71749-4 0  9995",
    "TLE_LINE2": "2 57075  43.0055  22.5061 0001212 274.5580  85.5124 15.02534550132580",
    "COMMENT": "Grouped by shell and plane from TLE"
  },
  {
    "OBJECT_NAME": "STARLINK-30327",
    "OBJECT_ID": "23129K",
    "EPOCH": "2025-11-11T05:35:04.947360",
    "MEAN_MOTION": 15.13246759,
    "ECCENTRICITY": 0.0012422,
    "INCLINATION": 43.001,
    "RA_OF_ASC_NODE": 26.3206,
    "ARG_OF_PERICENTER": 16.7989,
    "MEAN_ANOMALY": 343.3267,
    "EPHEMERIS_TYPE": 0,
    "CLASSIFICATION_TYPE": "U",
    "NORAD_CAT_ID": 57707,
    "ELEMENT_SET_NO": 999,
    "REV_AT_EPOCH": 12290,
    "BSTAR": 0.0023311,
    "MEAN_MOTION_DOT": 0.00042274,
    "MEAN_MOTION_DDOT": 0.0,
    "TLE_LINE1": "1 57707U 23129K   25315.23269615  .00042274  00000+0  23311-2 0  9993",
    "TLE_LINE2": "2 57707  43.0010  26.3206 0012422  16.7989 343.3267 15.13246759122901",
    "COMMENT": "Grouped by shell and plane from TLE"
  },
  {
    "OBJECT_NAME": "STARLINK-30989",
    "OBJECT_ID": "23191C",
    "EPOCH": "2025-11-11T06:29:44.426112",
    "MEAN_MOTION": 15.02540518,
    "ECCENTRICITY": 0.0001107,
    "INCLINATION": 43.0046,
    "RA_OF_ASC_NODE": 29.8151,
    "ARG_OF_PERICENTER": 275.4495,
    "MEAN_ANOMALY": 84.6221,
    "EPHEMERIS_TYPE": 0,
    "CLASSIFICATION_TYPE": "U",
    "NORAD_CAT_ID": 58510,
    "ELEMENT_SET_NO": 999,
    "REV_AT_EPOCH": 10765,
    "BSTAR": 7.000300000000001e-05,
    "MEAN_MOTION_DOT": 7.42e-06,
    "MEAN_MOTION_DDOT": 0.0,
    "TLE_LINE1": "1 58510U 23191C   25315.27065308  .00000742  00000+0  70003-4 0  9998",
    "TLE_LINE2": "2 58510  43.0046  29.8151 0001107 275.4495  84.6221 15.02540518107652",
    "COMMENT": "Grouped by shell and plane from TLE"
  },
  {
    "OBJECT_NAME": "STARLINK-30968",
    "OBJECT_ID": "23191D",
    "EPOCH": "2025-11-11T06:24:57.000096",
    "MEAN_MOTION": 15.02548432,
    "ECCENTRICITY": 0.0001082,
    "INCLINATION": 43.0013,
    "RA_OF_ASC_NODE": 29.7895,
    "ARG_OF_PERICENTER": 295.1838,
    "MEAN_ANOMALY": 64.8892,
    "EPHEMERIS_TYPE": 0,
    "CLASSIFICATION_TYPE": "U",
    "NORAD_CAT_ID": 58511,
    "ELEMENT_SET_NO": 999,
    "REV_AT_EPOCH": 10762,
    "BSTAR": 2.8264000000000002e-05,
    "MEAN_MOTION_DOT": 1.78e-06,
    "MEAN_MOTION_DDOT": 0.0,
    "TLE_LINE1": "1 58511U 23191D   25315.26732639  .00000178  00000+0  28264-4 0  9991",
    "TLE_LINE2": "2 58511  43.0013  29.7895 0001082 295.1838  64.8892 15.02548432107627",
    "COMMENT": "Grouped by shell and plane from TLE"
  },
  {
    "OBJECT_NAME": "STARLINK-30982",
    "OBJECT_ID": "23191E",
    "EPOCH": "2025-11-11T06:20:08.983104",
    "MEAN_MOTION": 15.0253711,
    "ECCENTRICITY": 0.0001064,
    "INCLINATION": 43.0014,
    "RA_OF_ASC_NODE": 29.7673,
    "ARG_OF_PERICENTER": 287.0794,
    "MEAN_ANOMALY": 72.9931,
    "EPHEMERIS_TYPE": 0,
    "CLASSIFICATION_TYPE": "U",
    "NORAD_CAT_ID": 58512,
    "ELEMENT_SET_NO": 999,
    "REV_AT_EPOCH": 10762,
    "BSTAR": 9.743300000000001e-05,
    "MEAN_MOTION_DOT": 1.113e-05,
    "MEAN_MOTION_DDOT": 0.0,
    "TLE_LINE1": "1 58512U 23191E   25315.26399286  .00001113  00000+0  97433-4 0  9993",
    "TLE_LINE2": "2 58512  43.0014  29.7673 0001064 287.0794  72.9931 15.02537110107629",
    "COMMENT": "Grouped by shell and plane from TLE"
  },
  {
    "OBJECT_NAME": "STARLINK-30998",
    "OBJECT_ID": "23191F",
    "EPOCH": "2025-11-11T06:15:21.399840",
    "MEAN_MOTION": 15.02536169,
    "ECCENTRICITY": 0.0001143,
    "INCLINATION": 43.0027,
    "RA_OF_ASC_NODE": 29.737,
    "ARG_OF_PERICENTER": 272.3121,
    "MEAN_ANOMALY": 87.7591,
    "EPHEMERIS_TYPE": 0,
    "CLASSIFICATION_TYPE": "U",
    "NORAD_CAT_ID": 58513,
    "ELEMENT_SET_NO": 999,
    "REV_AT_EPOCH": 10765,
    "BSTAR": 0.00010366000000000001,
    "MEAN_MOTION_DOT": 1.197e-05,
    "MEAN_MOTION_DDOT": 0.0,
    "TLE_LINE1": "1 58513U 23191F   25315.26066435  .00001197  00000+0  10366-3 0  9992",
    "TLE_LINE2": "2 58513  43.0027  29.7370 0001143 272.3121  87.7591 15.02536169107659",
    "COMMENT": "Grouped by shell and plane from TLE"
  },
  {
    "OBJECT_NAME": "STARLINK-30983",
    "OBJECT_ID": "23191G",
    "EPOCH": "2025-11-11T06:48:45.136800",
    "MEAN_MOTION": 15.02532564,
    "ECCENTRICITY": 9.32e-05,
    "INCLINATION": 43.0025,
    "RA_OF_ASC_NODE": 29.0602,
    "ARG_OF_PERICENTER": 279.6255,
    "MEAN_ANOMALY": 80.4482,
    "EPHEMERIS_TYPE": 0,
    "CLASSIFICATION_TYPE": "U",
    "NORAD_CAT_ID": 58514,
    "ELEMENT_SET_NO": 999,
    "REV_AT_EPOCH": 10728,
    "BSTAR": 0.00042507,
    "MEAN_MOTION_DOT": 5.542e-05,
    "MEAN_MOTION_DDOT": 0.0,
    "TLE_LINE1": "1 58514U 23191G   25315.28385575  .00005542  00000+0  42507-3 0  9994",
    "TLE_LINE2": "2 58514  43.0025  29.0602 0000932 279.6255  80.4482 15.02532564107285",
    "COMMENT": "Grouped by shell and plane from TLE"
  }
]